[{"OBJECT_NAME":"SJ-7","OBJECT_ID":"2005-024A","EPOCH":"2026-03-09T19:15:10.985472","MEAN_MOTION":15.19970131,"ECCENTRICITY":0.00167613,"INCLINATION":97.7412,"RA_OF_ASC_NODE":96.2911,"ARG_OF_PERICENTER":23.4499,"MEAN_ANOMALY":336.7495,"EPHEMERIS_TYPE":0,"CLASSIFICATION_TYPE":"U","NORAD_CAT_ID":28737,"ELEMENT_SET_NO":999,"REV_AT_EPOCH":13292,"BSTAR":0.00046264907,"MEAN_MOTION_DOT":9.925e-5,"MEAN_MOTION_DDOT":0},{"OBJECT_NAME":"BUFENG 1B","OBJECT_ID":"2019-032B","EPOCH":"2026-03-09T19:57:27.457920","MEAN_MOTION":15.25619535,"ECCENTRICITY":0.00242037,"INCLINATION":44.9701,"RA_OF_ASC_NODE":192.0248,"ARG_OF_PERICENTER":123.8847,"MEAN_ANOMALY":236.4342,"EPHEMERIS_TYPE":0,"CLASSIFICATION_TYPE":"U","NORAD_CAT_ID":44311,"ELEMENT_SET_NO":999,"REV_AT_EPOCH":37256,"BSTAR":0.00059375374,"MEAN_MOTION_DOT":0.00015236,"MEAN_MOTION_DDOT":0}]
